[{"OBJECT_NAME":"HULIANWANG DIGUI-33","OBJECT_ID":"2025-121D","EPOCH":"2026-03-05T06:23:47.932800","MEAN_MOTION":13.24425378,"ECCENTRICITY":0.0002079,"INCLINATION":86.4967,"RA_OF_ASC_NODE":48.6529,"ARG_OF_PERICENTER":77.9763,"MEAN_ANOMALY":282.1604,"EPHEMERIS_TYPE":0,"CLASSIFICATION_TYPE":"U","NORAD_CAT_ID":64286,"ELEMENT_SET_NO":999,"REV_AT_EPOCH":3640,"BSTAR":5.700886e-5,"MEAN_MOTION_DOT":3.9e-7,"MEAN_MOTION_DDOT":0},{"OBJECT_NAME":"HULIANWANG DIGUI-34","OBJECT_ID":"2025-121E","EPOCH":"2026-03-05T06:12:59.613984","MEAN_MOTION":13.24424271,"ECCENTRICITY":0.00022153,"INCLINATION":86.4945,"RA_OF_ASC_NODE":48.5873,"ARG_OF_PERICENTER":74.074,"MEAN_ANOMALY":286.0638,"EPHEMERIS_TYPE":0,"CLASSIFICATION_TYPE":"U","NORAD_CAT_ID":64287,"ELEMENT_SET_NO":999,"REV_AT_EPOCH":3640,"BSTAR":2.7928193e-5,"MEAN_MOTION_DOT":2.7e-7,"MEAN_MOTION_DDOT":0},{"OBJECT_NAME":"HULIANWANG DIGUI-35","OBJECT_ID":"2025-159A","EPOCH":"2026-03-05T07:13:29.344512","MEAN_MOTION":13.24417207,"ECCENTRICITY":0.000128,"INCLINATION":86.4985,"RA_OF_ASC_NODE":317.547,"ARG_OF_PERICENTER":71.7777,"MEAN_ANOMALY":288.3496,"EPHEMERIS_TYPE":0,"CLASSIFICATION_TYPE":"U","NORAD_CAT_ID":64956,"ELEMENT_SET_NO":999,"REV_AT_EPOCH":2937,"BSTAR":0.00010035522,"MEAN_MOTION_DOT":5.8e-7,"MEAN_MOTION_DDOT":0},{"OBJECT_NAME":"HULIANWANG DIGUI-36","OBJECT_ID":"2025-159B","EPOCH":"2026-03-05T07:02:19.983840","MEAN_MOTION":13.24419808,"ECCENTRICITY":0.00013625,"INCLINATION":86.5005,"RA_OF_ASC_NODE":317.5873,"ARG_OF_PERICENTER":70.7685,"MEAN_ANOMALY":289.3596,"EPHEMERIS_TYPE":0,"CLASSIFICATION_TYPE":"U","NORAD_CAT_ID":64957,"ELEMENT_SET_NO":999,"REV_AT_EPOCH":2937,"BSTAR":0.00010063568,"MEAN_MOTION_DOT":5.8e-7,"MEAN_MOTION_DDOT":0},{"OBJECT_NAME":"HULIANWANG DIGUI-37","OBJECT_ID":"2025-159C","EPOCH":"2026-03-05T06:51:28.359360","MEAN_MOTION":13.24419424,"ECCENTRICITY":0.00014436,"INCLINATION":86.4946,"RA_OF_ASC_NODE":317.4519,"ARG_OF_PERICENTER":68.4974,"MEAN_ANOMALY":291.6314,"EPHEMERIS_TYPE":0,"CLASSIFICATION_TYPE":"U","NORAD_CAT_ID":64958,"ELEMENT_SET_NO":999,"REV_AT_EPOCH":2937,"BSTAR":0.00013028469,"MEAN_MOTION_DOT":7.1e-7,"MEAN_MOTION_DDOT":0},{"OBJECT_NAME":"HULIANWANG DIGUI-38","OBJECT_ID":"2025-159D","EPOCH":"2026-03-05T06:40:37.333632","MEAN_MOTION":13.24419588,"ECCENTRICITY":0.00014236,"INCLINATION":86.5005,"RA_OF_ASC_NODE":317.5802,"ARG_OF_PERICENTER":70.9549,"MEAN_ANOMALY":289.1739,"EPHEMERIS_TYPE":0,"CLASSIFICATION_TYPE":"U","NORAD_CAT_ID":64959,"ELEMENT_SET_NO":999,"REV_AT_EPOCH":2937,"BSTAR":0.00015382071,"MEAN_MOTION_DOT":8.1e-7,"MEAN_MOTION_DDOT":0},{"OBJECT_NAME":"HULIANWANG DIGUI-39","OBJECT_ID":"2025-159E","EPOCH":"2026-03-05T06:29:43.517184","MEAN_MOTION":13.24419741,"ECCENTRICITY":0.00014282,"INCLINATION":86.498,"RA_OF_ASC_NODE":317.5226,"ARG_OF_PERICENTER":72.2043,"MEAN_ANOMALY":287.9247,"EPHEMERIS_TYPE":0,"CLASSIFICATION_TYPE":"U","NORAD_CAT_ID":64960,"ELEMENT_SET_NO":999,"REV_AT_EPOCH":2937,"BSTAR":0.0001826059,"MEAN_MOTION_DOT":9.3e-7,"MEAN_MOTION_DDOT":0},{"OBJECT_NAME":"HULIANWANG DIGUI-40","OBJECT_ID":"2025-162A","EPOCH":"2026-03-05T06:26:28.170240","MEAN_MOTION":13.29332288,"ECCENTRICITY":0.00010268,"INCLINATION":49.9989,"RA_OF_ASC_NODE":278.6874,"ARG_OF_PERICENTER":73.8595,"MEAN_ANOMALY":286.239,"EPHEMERIS_TYPE":0,"CLASSIFICATION_TYPE":"U","NORAD_CAT_ID":65043,"ELEMENT_SET_NO":999,"REV_AT_EPOCH":2952,"BSTAR":0.00014305352,"MEAN_MOTION_DOT":-5.8e-7,"MEAN_MOTION_DDOT":0},{"OBJECT_NAME":"HULIANWANG DIGUI-41","OBJECT_ID":"2025-162B","EPOCH":"2026-03-05T02:37:55.589088","MEAN_MOTION":13.29332655,"ECCENTRICITY":0.00010673,"INCLINATION":49.9999,"RA_OF_ASC_NODE":279.2005,"ARG_OF_PERICENTER":73.145,"MEAN_ANOMALY":286.9539,"EPHEMERIS_TYPE":0,"CLASSIFICATION_TYPE":"U","NORAD_CAT_ID":65044,"ELEMENT_SET_NO":999,"REV_AT_EPOCH":2951,"BSTAR":0.00015045875,"MEAN_MOTION_DOT":-5.4e-7,"MEAN_MOTION_DDOT":0},{"OBJECT_NAME":"HULIANWANG DIGUI-42","OBJECT_ID":"2025-162C","EPOCH":"2026-03-05T02:25:51.436128","MEAN_MOTION":13.29332087,"ECCENTRICITY":0.00010063,"INCLINATION":49.9964,"RA_OF_ASC_NODE":279.0953,"ARG_OF_PERICENTER":74.7007,"MEAN_ANOMALY":285.3976,"EPHEMERIS_TYPE":0,"CLASSIFICATION_TYPE":"U","NORAD_CAT_ID":65045,"ELEMENT_SET_NO":999,"REV_AT_EPOCH":2951,"BSTAR":0.00015758643,"MEAN_MOTION_DOT":-5.1e-7,"MEAN_MOTION_DDOT":0},{"OBJECT_NAME":"HULIANWANG DIGUI-43","OBJECT_ID":"2025-162D","EPOCH":"2026-03-05T04:02:03.371712","MEAN_MOTION":13.29333137,"ECCENTRICITY":9.971e-5,"INCLINATION":49.9981,"RA_OF_ASC_NODE":278.8139,"ARG_OF_PERICENTER":73.5704,"MEAN_ANOMALY":286.5277,"EPHEMERIS_TYPE":0,"CLASSIFICATION_TYPE":"U","NORAD_CAT_ID":65046,"ELEMENT_SET_NO":999,"REV_AT_EPOCH":2952,"BSTAR":0.00015456873,"MEAN_MOTION_DOT":-5.2e-7,"MEAN_MOTION_DDOT":0},{"OBJECT_NAME":"HULIANWANG DIGUI-44","OBJECT_ID":"2025-162E","EPOCH":"2026-03-05T03:49:36.493824","MEAN_MOTION":13.29340716,"ECCENTRICITY":7.743e-5,"INCLINATION":50.0008,"RA_OF_ASC_NODE":278.8167,"ARG_OF_PERICENTER":352.9932,"MEAN_ANOMALY":7.0929,"EPHEMERIS_TYPE":0,"CLASSIFICATION_TYPE":"U","NORAD_CAT_ID":65047,"ELEMENT_SET_NO":999,"REV_AT_EPOCH":2953,"BSTAR":0.00014682269,"MEAN_MOTION_DOT":-5.6e-7,"MEAN_MOTION_DDOT":0},{"OBJECT_NAME":"HULIANWANG DIGUI-45","OBJECT_ID":"2025-162F","EPOCH":"2026-03-05T03:38:02.875488","MEAN_MOTION":13.29332992,"ECCENTRICITY":0.00010533,"INCLINATION":50.0039,"RA_OF_ASC_NODE":278.8287,"ARG_OF_PERICENTER":73.901,"MEAN_ANOMALY":286.1978,"EPHEMERIS_TYPE":0,"CLASSIFICATION_TYPE":"U","NORAD_CAT_ID":65048,"ELEMENT_SET_NO":999,"REV_AT_EPOCH":2952,"BSTAR":0.00013537309,"MEAN_MOTION_DOT":-6.1e-7,"MEAN_MOTION_DDOT":0},{"OBJECT_NAME":"HULIANWANG DIGUI-46","OBJECT_ID":"2025-162G","EPOCH":"2026-03-05T07:02:31.900992","MEAN_MOTION":13.29332903,"ECCENTRICITY":0.00010516,"INCLINATION":50.0056,"RA_OF_ASC_NODE":278.2786,"ARG_OF_PERICENTER":76.3692,"MEAN_ANOMALY":283.7297,"EPHEMERIS_TYPE":0,"CLASSIFICATION_TYPE":"U","NORAD_CAT_ID":65049,"ELEMENT_SET_NO":999,"REV_AT_EPOCH":2954,"BSTAR":0.00012179919,"MEAN_MOTION_DOT":-6.8e-7,"MEAN_MOTION_DDOT":0},{"OBJECT_NAME":"HULIANWANG DIGUI-47","OBJECT_ID":"2025-162H","EPOCH":"2026-03-05T06:50:29.903712","MEAN_MOTION":13.29332786,"ECCENTRICITY":0.00010357,"INCLINATION":50.002,"RA_OF_ASC_NODE":278.1731,"ARG_OF_PERICENTER":77.7094,"MEAN_ANOMALY":282.3894,"EPHEMERIS_TYPE":0,"CLASSIFICATION_TYPE":"U","NORAD_CAT_ID":65050,"ELEMENT_SET_NO":999,"REV_AT_EPOCH":2954,"BSTAR":0.00014504273,"MEAN_MOTION_DOT":-5.7e-7,"MEAN_MOTION_DDOT":0},{"OBJECT_NAME":"HULIANWANG DIGUI-48","OBJECT_ID":"2025-162J","EPOCH":"2026-03-05T03:01:59.110176","MEAN_MOTION":13.29332225,"ECCENTRICITY":0.00010261,"INCLINATION":50.0031,"RA_OF_ASC_NODE":278.6861,"ARG_OF_PERICENTER":75.0634,"MEAN_ANOMALY":285.0351,"EPHEMERIS_TYPE":0,"CLASSIFICATION_TYPE":"U","NORAD_CAT_ID":65051,"ELEMENT_SET_NO":999,"REV_AT_EPOCH":2952,"BSTAR":0.0001286833,"MEAN_MOTION_DOT":-6.4e-7,"MEAN_MOTION_DDOT":0}]
