HULIANWANG DIGUI-33     
1 64286U 25121D   26064.26652700  .00000039  00000+0  57009-4 0  9999
2 64286  86.4967  48.6529 0002079  77.9763 282.1604 13.24425378 36404
HULIANWANG DIGUI-34     
1 64287U 25121E   26064.25902331  .00000027  00000+0  27928-4 0  9991
2 64287  86.4945  48.5873 0002215  74.0740 286.0638 13.24424271 36408
HULIANWANG DIGUI-35     
1 64956U 25159A   26064.30103408  .00000058  00000+0  10036-3 0  9994
2 64956  86.4985 317.5470 0001280  71.7777 288.3496 13.24417207 29378
HULIANWANG DIGUI-36     
1 64957U 25159B   26064.29328685  .00000058  00000+0  10064-3 0  9990
2 64957  86.5005 317.5873 0001362  70.7685 289.3596 13.24419808 29379
HULIANWANG DIGUI-37     
1 64958U 25159C   26064.28574490  .00000071  00000+0  13028-3 0  9995
2 64958  86.4946 317.4519 0001443  68.4974 291.6314 13.24419424 29372
HULIANWANG DIGUI-38     
1 64959U 25159D   26064.27820988  .00000081  00000+0  15382-3 0  9997
2 64959  86.5005 317.5802 0001423  70.9549 289.1739 13.24419588 29374
HULIANWANG DIGUI-39     
1 64960U 25159E   26064.27064256  .00000093  00000+0  18261-3 0  9999
2 64960  86.4980 317.5226 0001428  72.2043 287.9247 13.24419741 29377
HULIANWANG DIGUI-40     
1 65043U 25162A   26064.26838160 -.00000058  00000+0  14305-3 0  9995
2 65043  49.9989 278.6874 0001026  73.8595 286.2390 13.29332288 29525
HULIANWANG DIGUI-41     
1 65044U 25162B   26064.10967117 -.00000054  00000+0  15046-3 0  9993
2 65044  49.9999 279.2005 0001067  73.1450 286.9539 13.29332655 29517
HULIANWANG DIGUI-42     
1 65045U 25162C   26064.10128977 -.00000051  00000+0  15759-3 0  9995
2 65045  49.9964 279.0953 0001006  74.7007 285.3976 13.29332087 29515
HULIANWANG DIGUI-43     
1 65046U 25162D   26064.16809458 -.00000052  00000+0  15457-3 0  9998
2 65046  49.9981 278.8139 0000997  73.5704 286.5277 13.29333137 29522
HULIANWANG DIGUI-44     
1 65047U 25162E   26064.15945016 -.00000056  00000+0  14682-3 0  9992
2 65047  50.0008 278.8167 0000774 352.9932   7.0929 13.29340716 29539
HULIANWANG DIGUI-45     
1 65048U 25162F   26064.15142217 -.00000061  00000+0  13537-3 0  9999
2 65048  50.0039 278.8287 0001053  73.9010 286.1978 13.29332992 29525
HULIANWANG DIGUI-46     
1 65049U 25162G   26064.29342478 -.00000068  00000+0  12180-3 0  9996
2 65049  50.0056 278.2786 0001051  76.3692 283.7297 13.29332903 29545
HULIANWANG DIGUI-47     
1 65050U 25162H   26064.28506833 -.00000057  00000+0  14504-3 0  9994
2 65050  50.0020 278.1731 0001035  77.7094 282.3894 13.29332786 29547
HULIANWANG DIGUI-48     
1 65051U 25162J   26064.12637859 -.00000064  00000+0  12868-3 0  9990
2 65051  50.0031 278.6861 0001026  75.0634 285.0351 13.29332225 29524
